{
    "links": {
        "self": "http://www.neowsapp.com/rest/v1/neo/54054632?api_key=iIulBulltgU6a56xZRHN4H3l9WmuAYTsLGpBGhQ2"
    },
    "id": "54054632",
    "neo_reference_id": "54054632",
    "name": "(2020 SU4)",
    "designation": "2020 SU4",
    "nasa_jpl_url": "http://ssd.jpl.nasa.gov/sbdb.cgi?sstr=54054632",
    "absolute_magnitude_h": 23.872,
    "estimated_diameter": {
        "kilometers": {
            "estimated_diameter_min": 0.0446843018,
            "estimated_diameter_max": 0.0999171364
        },
        "meters": {
            "estimated_diameter_min": 44.6843018216,
            "estimated_diameter_max": 99.9171364002
        },
        "miles": {
            "estimated_diameter_min": 0.0277655293,
            "estimated_diameter_max": 0.062085611
        },
        "feet": {
            "estimated_diameter_min": 146.6020447884,
            "estimated_diameter_max": 327.8121377873
        }
    },
    "is_potentially_hazardous_asteroid": false,
    "close_approach_data": [
        {
            "close_approach_date": "2017-12-05",
            "close_approach_date_full": "2017-Dec-05 04:13",
            "epoch_date_close_approach": 1512447180000,
            "relative_velocity": {
                "kilometers_per_second": "15.956498432",
                "kilometers_per_hour": "57443.3943553202",
                "miles_per_hour": "35693.0913426155"
            },
            "miss_distance": {
                "astronomical": "0.2907751752",
                "lunar": "113.1115431528",
                "kilometers": "43499346.858796824",
                "miles": "27029240.7755072112"
            },
            "orbiting_body": "Earth"
        },
        {
            "close_approach_date": "2020-09-27",
            "close_approach_date_full": "2020-Sep-27 15:35",
            "epoch_date_close_approach": 1601220900000,
            "relative_velocity": {
                "kilometers_per_second": "9.1102114646",
                "kilometers_per_hour": "32796.7612726162",
                "miles_per_hour": "20378.6320251986"
            },
            "miss_distance": {
                "astronomical": "0.0321635608",
                "lunar": "12.5116251512",
                "kilometers": "4811600.187295496",
                "miles": "2989789.7179940048"
            },
            "orbiting_body": "Earth"
        },
        {
            "close_approach_date": "2023-08-17",
            "close_approach_date_full": "2023-Aug-17 02:10",
            "epoch_date_close_approach": 1692238200000,
            "relative_velocity": {
                "kilometers_per_second": "22.2320108663",
                "kilometers_per_hour": "80035.2391188564",
                "miles_per_hour": "49730.7851069361"
            },
            "miss_distance": {
                "astronomical": "0.4853115576",
                "lunar": "188.7861959064",
                "kilometers": "72601575.303342312",
                "miles": "45112526.9978234256"
            },
            "orbiting_body": "Earth"
        },
        {
            "close_approach_date": "2093-11-21",
            "close_approach_date_full": "2093-Nov-21 22:50",
            "epoch_date_close_approach": 3909682200000,
            "relative_velocity": {
                "kilometers_per_second": "11.5212694903",
                "kilometers_per_hour": "41476.5701650181",
                "miles_per_hour": "25771.9277228136"
            },
            "miss_distance": {
                "astronomical": "0.1655585781",
                "lunar": "64.4022868809",
                "kilometers": "24767210.643988647",
                "miles": "15389631.0674994486"
            },
            "orbiting_body": "Earth"
        },
        {
            "close_approach_date": "2096-09-07",
            "close_approach_date_full": "2096-Sep-07 11:25",
            "epoch_date_close_approach": 3997855500000,
            "relative_velocity": {
                "kilometers_per_second": "13.4101133581",
                "kilometers_per_hour": "48276.4080892115",
                "miles_per_hour": "29997.0825707659"
            },
            "miss_distance": {
                "astronomical": "0.1912589027",
                "lunar": "74.3997131503",
                "kilometers": "28611924.462457249",
                "miles": "17778625.4551540762"
            },
            "orbiting_body": "Earth"
        }
    ],
    "orbital_data": {
        "orbit_id": "8",
        "orbit_determination_date": "2020-11-03 14:47:01",
        "first_observation_date": "2020-09-23",
        "last_observation_date": "2020-10-24",
        "data_arc_in_days": 31,
        "observations_used": 41,
        "orbit_uncertainty": "6",
        "minimum_orbit_intersection": ".00103567",
        "jupiter_tisserand_invariant": "3.604",
        "epoch_osculation": "2459000.5",
        "eccentricity": ".5169699518407911",
        "semi_major_axis": "2.048942477494167",
        "inclination": "7.924078311882139",
        "ascending_node_longitude": "13.30542910720068",
        "orbital_period": "1071.255527924272",
        "perihelion_distance": ".9897007835794565",
        "perihelion_argument": "14.20261347534951",
        "aphelion_distance": "3.108184171408878",
        "perihelion_time": "2459137.859919074448",
        "mean_anomaly": "313.8396119526983",
        "mean_motion": ".3360542752087892",
        "equinox": "J2000",
        "orbit_class": {
            "orbit_class_type": "APO",
            "orbit_class_description": "Near-Earth asteroid orbits which cross the Earth’s orbit similar to that of 1862 Apollo",
            "orbit_class_range": "a (semi-major axis) > 1.0 AU; q (perihelion) < 1.017 AU"
        }
    },
    "is_sentry_object": false
}